From: horizons@ssd.jpl.nasa.gov (Horizons Ephemeris System)
Subject: [Horizons] SMALL BODY #C(500@10)_T(SOHO (P/2003 T12)) (1/1)
Date: March 1, 2021 at 1:23:17 PM PST

Automated mail xmit by MAIL_REQUEST, PID= 2301 Mon Mar  1 13:23:16 2021
++++++++++++++++++++++++++++++++ (part 1 of 1)  +++++++++++++++++++++++++++++++
*******************************************************************************
JPL/HORIZONS                  SOHO (P/2003 T12)            2021-Mar-01 13:23:16
Rec #:90002977 (+COV) Soln.date: 2020-Nov-11_11:06:02    # obs: 491 (2003-2016)

IAU76/J2000 helio. ecliptic osc. elements (au, days, deg., period=Julian yrs):

 EPOCH=  2456072.5 ! 2012-May-25.0000000 (TDB)    RMSW= n.a.
  EC= .7761661411908493   QR= .5748057249730697   TP= 2455952.9465752076
  OM= 176.4657147869952   W= 217.6688329855281    IN= 11.47515445399187
  A= 2.568001677812162    MA= 28.63341454255536   ADIST= 4.561197630651255
  PER= 4.1152968621989    N= .239503082           ANGMOM= .017381361
  DAN= 2.64755            DDN= .63241             L= 33.5764166
  B= -6.982916            MOID= .154717           TP= 2012-Jan-26.4465752076

Comet physical (GM= km^3/s^2; RAD= km):
  GM= n.a.                RAD= n.a.
  M1=  19.6     M2=  n.a.     k1=  21.75  k2= n.a.     PHCOF= n.a.

COMET comments 
1: soln ref.= JPL#8, data arc: 2003-10-09 to 2016-05-05
2: k1=21.75;
*******************************************************************************


*******************************************************************************
Ephemeris / MAIL_REQUEST Mon Mar  1 13:23:16 2021 Pasadena, USA  / Horizons
*******************************************************************************
Target body name: SOHO (P/2003 T12)               {source: JPL#8}
Center body name: Sun (10)                        {source: DE431}
Center-site name: BODY CENTER
*******************************************************************************
Start time      : A.D. 1990-Jan-01 00:00:00.0000 TDB
Stop  time      : A.D. 2020-Dec-31 00:00:00.0000 TDB
Step-size       : 10080 minutes
*******************************************************************************
Center geodetic : 0.00000000,0.00000000,0.0000000 {E-lon(deg),Lat(deg),Alt(km)}
Center cylindric: 0.00000000,0.00000000,0.0000000 {E-lon(deg),Dxy(km),Dz(km)}
Center radii    : 696000.0 x 696000.0 x 696000.0 k{Equator, meridian, pole}    
Small perturbers: Yes                             {source: SB431-N16}
Output units    : AU-D
Output type     : GEOMETRIC cartesian states
Output format   : 6 (LT, range, and range-rate)
Reference frame : Ecliptic of J2000.0
*******************************************************************************
Initial IAU76/J2000 heliocentric ecliptic osculating elements (au, days, deg.):
 EPOCH=  2456072.5 ! 2012-May-25.0000000 (TDB)    RMSW= n.a.                  
  EC= .7761661411908493   QR= .5748057249730697   TP= 2455952.9465752076      
  OM= 176.4657147869952   W= 217.6688329855281    IN= 11.47515445399187       
 Equivalent ICRF heliocentric equatorial cartesian coordinates (au, au/d):
  X=-1.800299770760705E+00  Y= 6.044070409057362E-01  Z= 1.508821487259301E-01
 VX=-1.299099925970802E-02 VY=-5.082113451756473E-03 VZ=-9.159972533264544E-04
Comet physical (GM= km^3/s^2; RAD= km):                                        
  GM= n.a.                RAD= n.a.                                           
  M1=  19.6     M2=  n.a.     k1=  21.75  k2= n.a.     PHCOF= n.a.            
*******************************************************************************
           JDTDB,            Calendar Date (TDB),                     LT,                     RG,                     RR,
**************************************************************************************************************************
$$SOE
2454892.500000000, A.D. 2009-Mar-02 00:00:00.0000,  2.322128501137510E-02,  4.020640863518385E+00,  3.647333014253417E-03,
2454899.500000000, A.D. 2009-Mar-09 00:00:00.0000,  2.336681801049552E-02,  4.045839121193070E+00,  3.552333042486599E-03,
2454906.500000000, A.D. 2009-Mar-16 00:00:00.0000,  2.350852989810059E-02,  4.070375773918022E+00,  3.458296475735793E-03,
2454913.500000000, A.D. 2009-Mar-23 00:00:00.0000,  2.364645884048849E-02,  4.094257429982924E+00,  3.365184877233402E-03,
2454920.500000000, A.D. 2009-Mar-30 00:00:00.0000,  2.378064148385626E-02,  4.117490434480094E+00,  3.272961438532637E-03,
2454927.500000000, A.D. 2009-Apr-06 00:00:00.0000,  2.391111301101154E-02,  4.140080879123843E+00,  3.181590424475790E-03,
2454934.500000000, A.D. 2009-Apr-13 00:00:00.0000,  2.403790716397027E-02,  4.162034606163122E+00,  3.091036173663707E-03,
2454941.500000000, A.D. 2009-Apr-20 00:00:00.0000,  2.416105625439629E-02,  4.183357210189102E+00,  3.001264054400685E-03,
2454948.500000000, A.D. 2009-Apr-27 00:00:00.0000,  2.428059126058467E-02,  4.204054054927302E+00,  2.912242849865021E-03,
2454955.500000000, A.D. 2009-May-04 00:00:00.0000,  2.439654194649247E-02,  4.224130293847134E+00,  2.823943260689925E-03,
2454962.500000000, A.D. 2009-May-11 00:00:00.0000,  2.450893689980117E-02,  4.243590876752209E+00,  2.736336335178059E-03,
2454969.500000000, A.D. 2009-May-18 00:00:00.0000,  2.461780354638105E-02,  4.262440552284757E+00,  2.649393612291850E-03,
2454976.500000000, A.D. 2009-May-25 00:00:00.0000,  2.472316817629119E-02,  4.280683872427407E+00,  2.563087390351617E-03,
2454983.500000000, A.D. 2009-Jun-01 00:00:00.0000,  2.482505597651543E-02,  4.298325198171220E+00,  2.477390805646611E-03,
2454990.500000000, A.D. 2009-Jun-08 00:00:00.0000,  2.492349106498112E-02,  4.315368705405868E+00,  2.392277834015325E-03,
2454997.500000000, A.D. 2009-Jun-15 00:00:00.0000,  2.501849652427910E-02,  4.331818390758063E+00,  2.307723279806312E-03,
2455004.500000000, A.D. 2009-Jun-22 00:00:00.0000,  2.511009443478015E-02,  4.347678077325496E+00,  2.223702749307985E-03,
2455011.500000000, A.D. 2009-Jun-29 00:00:00.0000,  2.519830590429724E-02,  4.362951419812687E+00,  2.140192458475817E-03,
2455018.500000000, A.D. 2009-Jul-06 00:00:00.0000,  2.528315107972650E-02,  4.377641906546567E+00,  2.057168467332920E-03,
2455025.500000000, A.D. 2009-Jul-13 00:00:00.0000,  2.536464912257340E-02,  4.391752855238964E+00,  1.974606050341272E-03,
2455032.500000000, A.D. 2009-Jul-20 00:00:00.0000,  2.544281821297432E-02,  4.405287413682911E+00,  1.892481927616957E-03,
2455039.500000000, A.D. 2009-Jul-27 00:00:00.0000,  2.551767564758676E-02,  4.418248576701817E+00,  1.810775440525870E-03,
2455046.500000000, A.D. 2009-Aug-03 00:00:00.0000,  2.558923790397919E-02,  4.430639197298226E+00,  1.729466422122662E-03,
2455053.500000000, A.D. 2009-Aug-10 00:00:00.0000,  2.565752063988026E-02,  4.442461986523809E+00,  1.648534514694634E-03,
2455060.500000000, A.D. 2009-Aug-17 00:00:00.0000,  2.572253869171594E-02,  4.453719513226091E+00,  1.567959500740476E-03,
2455067.500000000, A.D. 2009-Aug-24 00:00:00.0000,  2.578430608540707E-02,  4.464414205917988E+00,  1.487721523165921E-03,
2455074.500000000, A.D. 2009-Aug-31 00:00:00.0000,  2.584283605279171E-02,  4.474548355621237E+00,  1.407801163077412E-03,
2455081.500000000, A.D. 2009-Sep-07 00:00:00.0000,  2.589814105006251E-02,  4.484124119058738E+00,  1.328179472949179E-03,
2455088.500000000, A.D. 2009-Sep-14 00:00:00.0000,  2.595023277738353E-02,  4.493143522051103E+00,  1.248838003337198E-03,
2455095.500000000, A.D. 2009-Sep-21 00:00:00.0000,  2.599912219899053E-02,  4.501608462996903E+00,  1.169758781125693E-03,
2455102.500000000, A.D. 2009-Sep-28 00:00:00.0000,  2.604481955745599E-02,  4.509520715342590E+00,  1.090923966291818E-03,
2455109.500000000, A.D. 2009-Oct-05 00:00:00.0000,  2.608733436032957E-02,  4.516881925269351E+00,  1.012314857939647E-03,
2455116.500000000, A.D. 2009-Oct-12 00:00:00.0000,  2.612667534048220E-02,  4.523693604826925E+00,  9.339121956438735E-04,
2455123.500000000, A.D. 2009-Oct-19 00:00:00.0000,  2.616285048978909E-02,  4.529957137765602E+00,  8.556989139049506E-04,
2455130.500000000, A.D. 2009-Oct-26 00:00:00.0000,  2.619586715163924E-02,  4.535673795553776E+00,  7.776595856762718E-04,
2455137.500000000, A.D. 2009-Nov-02 00:00:00.0000,  2.622573204395244E-02,  4.540844741363201E+00,  6.997785606586311E-04,
2455144.500000000, A.D. 2009-Nov-09 00:00:00.0000,  2.625245124460517E-02,  4.545471027545566E+00,  6.220398831470797E-04,
2455151.500000000, A.D. 2009-Nov-16 00:00:00.0000,  2.627603018557500E-02,  4.549553594618634E+00,  5.444275922404583E-04,
2455158.500000000, A.D. 2009-Nov-23 00:00:00.0000,  2.629647365591804E-02,  4.553093271781766E+00,  4.669258547210115E-04,
2455165.500000000, A.D. 2009-Nov-30 00:00:00.0000,  2.631378580787137E-02,  4.556090777972527E+00,  3.895190038036273E-04,
2455172.500000000, A.D. 2009-Dec-07 00:00:00.0000,  2.632797016395117E-02,  4.558546723095685E+00,  3.121915571290966E-04,
2455179.500000000, A.D. 2009-Dec-14 00:00:00.0000,  2.633902962474326E-02,  4.560461609372106E+00,  2.349282298438246E-04,
2455186.500000000, A.D. 2009-Dec-21 00:00:00.0000,  2.634696647573724E-02,  4.561835832522050E+00,  1.577138357990697E-04,
2455193.500000000, A.D. 2009-Dec-28 00:00:00.0000,  2.635178238131881E-02,  4.562669680724964E+00,  8.053265821657872E-05,
2455200.500000000, A.D. 2010-Jan-04 00:00:00.0000,  2.635347834128201E-02,  4.562963327089824E+00,  3.367484877744323E-06,
2455207.500000000, A.D. 2010-Jan-11 00:00:00.0000,  2.635205465105468E-02,  4.562716822768370E+00, -7.379876324617706E-05,
2455214.500000000, A.D. 2010-Jan-18 00:00:00.0000,  2.634751096042800E-02,  4.561930107123827E+00, -1.509809858331232E-04,
2455221.500000000, A.D. 2010-Jan-25 00:00:00.0000,  2.633984633261263E-02,  4.560603017956152E+00, -2.281936689975746E-04,
2455228.500000000, A.D. 2010-Feb-01 00:00:00.0000,  2.632905923165782E-02,  4.558735289323710E+00, -3.054519816365318E-04,
2455235.500000000, A.D. 2010-Feb-08 00:00:00.0000,  2.631514749781034E-02,  4.556326547276827E+00, -3.827715596779075E-04,
